OBJECT_NAME,OBJECT_ID,EPOCH,MEAN_MOTION,ECCENTRICITY,INCLINATION,RA_OF_ASC_NODE,ARG_OF_PERICENTER,MEAN_ANOMALY,EPHEMERIS_TYPE,CLASSIFICATION_TYPE,NORAD_CAT_ID,ELEMENT_SET_NO,REV_AT_EPOCH,BSTAR,MEAN_MOTION_DOT,MEAN_MOTION_DDOT
PROX-1,2019-036A,2026-07-12T14:58:12.458784,14.91213866,.00057643,23.9957,304.2578,339.2511,20.7755,0,U,44339,999,37727,.66489643E-3,.706E-4,0
NPSAT1,2019-036B,2026-07-12T15:03:56.685888,14.74807789,.00075099,23.9991,52.0344,137.8037,222.3038,0,U,44340,999,37625,.4142685E-3,.3086E-4,0
FORMOSAT 7-3,2019-036E,2026-07-12T13:26:53.814048,15.09982287,.00004107,24.0004,3.8842,187.8054,172.2443,0,U,44343,999,38708,.14580373E-3,.2776E-4,0
FORMOSAT 7-1,2019-036L,2026-07-12T09:12:12.763584,14.96605914,.00010592,23.9966,222.5156,107.3365,252.7252,0,U,44349,999,38843,.91205467E-4,.1367E-4,0
FORMOSAT 7-4,2019-036M,2026-07-12T14:32:45.830400,14.96604378,.00013499,23.9982,283.1246,117.8855,242.1782,0,U,44350,999,38788,.99534021E-4,.1465E-4,0
FORMOSAT 7-2,2019-036N,2026-07-12T13:28:57.587232,14.96602845,.00007929,23.9995,337.7372,110.7842,249.2743,0,U,44351,999,38739,.10899979E-3,.1575E-4,0
FORMOSAT 7-6,2019-036Q,2026-07-12T05:28:19.199136,14.96605816,.0001246,23.9964,160.7962,45.8851,314.1752,0,U,44353,999,38557,.10449E-3,.1523E-4,0
FORMOSAT 7-5,2019-036V,2026-07-12T00:07:45.135264,14.96584241,.00004896,23.9982,101.0484,115.9872,244.0679,0,U,44358,999,38607,.11211461E-3,.161E-4,0
METEOR-M2 2,2019-038A,2026-07-12T14:29:00.352320,14.24372003,.00009046,98.9155,181.2651,9.1924,350.9270,0,U,44387,999,36491,-.3186005E-5,-.53E-6,0
GLOBAL-4,2019-054E,2026-07-12T03:40:40.728288,15.66840785,.0004839,45.0057,92.0863,175.6688,184.4252,0,U,44499,999,38427,.35845225E-3,.38641E-3,0
ZY-1 02D,2019-059A,2026-07-12T15:39:43.481376,14.35268404,.00032181,98.6719,255.1959,309.7412,50.3490,0,U,44528,999,35799,.8035399E-4,.185E-5,0
TAURUS-1 (JINNIUZUO 1),2019-059C,2026-07-12T14:14:43.747296,14.72351689,.00078436,98.6426,0.0051,224.4435,135.6142,0,U,44530,999,36238,.41573537E-3,.2576E-4,0
ZHUHAI-1 03B,2019-060C,2026-07-12T14:31:21.582624,15.55524241,.00082281,97.5543,352.7740,215.1312,144.9401,0,U,44536,999,38027,.32399866E-3,.22096E-3,0
ZHUHAI-1 03D,2019-060E,2026-07-12T14:05:29.689152,15.51230876,.00073301,97.5389,344.6534,200.7088,159.3868,0,U,44538,999,38001,.38484038E-3,.22481E-3,0
ZHUHAI-1 03E,2019-060F,2026-07-12T13:27:02.840256,15.41864958,.00043739,97.5631,344.4067,288.6941,71.3831,0,U,44539,999,37967,.254446E-3,.10712E-3,0
GAOFEN-7,2019-072A,2026-07-12T15:40:12.531648,15.21503351,.00175727,97.5711,254.3728,313.5466,46.4309,0,U,44703,999,37151,.98529891E-4,.2152E-4,0
JILIN-1 GAOFEN 2A,2019-075A,2026-07-12T13:07:42.874464,15.39968282,.000543,97.4968,277.9402,5.0191,355.1108,0,U,44777,999,36878,.21588598E-3,.8521E-4,0
NINGXIA-1 1,2019-076A,2026-07-12T14:53:37.952160,14.02041689,.00116192,45.0063,66.1939,278.3585,81.5932,0,U,44779,999,34142,.11641818E-4,-.112E-5,0
NINGXIA-1 5,2019-076E,2026-07-12T15:11:30.738624,14.02089977,.00114314,45.0061,65.4709,269.4057,90.5467,0,U,44783,999,34134,.98775931E-4,.22E-6,0
KL-ALPHA A,2019-077A,2026-07-12T13:50:58.201728,13.56045797,.00126319,88.9240,219.7878,43.6166,316.5985,0,U,44785,999,32917,.21230595E-3,.161E-5,0
CARTOSAT-3,2019-081A,2026-07-12T15:30:47.016000,15.19313516,.00132284,97.4298,255.1020,69.0252,291.2397,0,U,44804,999,36733,.13691441E-3,.2828E-4,0
JILIN-1 GAOFEN 2B,2019-086A,2026-07-12T13:03:21.808224,15.20981228,.00129965,97.4877,265.3789,225.7243,134.2927,0,U,44836,999,36434,.16106235E-3,.3506E-4,0
TIANQIN 1 (CAS-6),2019-093A,2026-07-12T13:57:24.261984,14.95551956,.00101562,97.7804,277.2390,336.6499,23.4259,0,U,44879,999,35584,.19201684E-3,.2072E-4,0
ETRSS-1,2019-093B,2026-07-12T13:56:28.262688,14.95998867,.00102837,97.7821,277.7201,336.5735,23.5016,0,U,44880,999,35585,.19859975E-3,.2171E-4,0
TIANYAN 01,2019-093C,2026-07-12T14:57:22.698432,14.86558614,.00137799,97.7526,265.2339,9.9275,350.2211,0,U,44881,999,35519,.77288823E-4,.632E-5,0
TIANYAN 02,2019-093D,2026-07-12T13:51:42.440256,15.05515904,.00120617,97.7944,288.6165,298.9286,61.0730,0,U,44882,999,35643,.20857881E-3,.294E-4,0
CBERS 4A,2019-093E,2026-07-12T14:54:35.739936,14.81444078,.00013278,98.0187,261.0821,132.7901,227.3423,0,U,44883,999,35484,.15420611E-3,.1154E-4,0
WEILAI 1R,2019-093F,2026-07-12T12:35:01.836384,15.00852746,.00158968,97.7887,283.4556,317.4519,42.5472,0,U,44884,999,35622,.18682167E-3,.2319E-4,0
