PROX-1                  
1 44339U 19036A   26193.62375531  .00007060  00000+0  66490-3 0  9995
2 44339  23.9957 304.2578 0005764 339.2511  20.7755 14.91213866377278
NPSAT1                  
1 44340U 19036B   26193.62773942  .00003086  00000+0  41427-3 0  9992
2 44340  23.9991  52.0344 0007509 137.8037 222.3038 14.74807789376256
FORMOSAT 7-3            
1 44343U 19036E   26193.56034507  .00002776  00000+0  14580-3 0  9990
2 44343  24.0004   3.8842 0000410 187.8054 172.2443 15.09982287387083
FORMOSAT 7-1            
1 44349U 19036L   26193.38348106  .00001367  00000+0  91205-4 0  9994
2 44349  23.9966 222.5156 0001059 107.3365 252.7252 14.96605914388430
FORMOSAT 7-4            
1 44350U 19036M   26193.60608600  .00001465  00000+0  99534-4 0  9991
2 44350  23.9982 283.1246 0001349 117.8855 242.1782 14.96604378387887
FORMOSAT 7-2            
1 44351U 19036N   26193.56177763  .00001575  00000+0  10900-3 0  9999
2 44351  23.9995 337.7372 0000792 110.7842 249.2743 14.96602845387395
FORMOSAT 7-6            
1 44353U 19036Q   26193.22799999  .00001523  00000+0  10449-3 0  9996
2 44353  23.9964 160.7962 0001246  45.8851 314.1752 14.96605816385576
FORMOSAT 7-5            
1 44358U 19036V   26193.00538351  .00001610  00000+0  11211-3 0  9995
2 44358  23.9982 101.0484 0000489 115.9872 244.0679 14.96584241386071
METEOR-M2 2             
1 44387U 19038A   26193.60347630 -.00000053  00000+0 -31860-5 0  9999
2 44387  98.9155 181.2651 0000904   9.1924 350.9270 14.24372003364912
GLOBAL-4                
1 44499U 19054E   26193.15324917  .00038641  00000+0  35845-3 0  9991
2 44499  45.0057  92.0863 0004839 175.6688 184.4252 15.66840785384276
ZY-1 02D                
1 44528U 19059A   26193.65258659  .00000185  00000+0  80354-4 0  9991
2 44528  98.6719 255.1959 0003218 309.7412  50.3490 14.35268404357992
TAURUS-1 (JINNIUZUO 1)  
1 44530U 19059C   26193.59356189  .00002576  00000+0  41574-3 0  9990
2 44530  98.6426   0.0051 0007843 224.4435 135.6142 14.72351689362385
ZHUHAI-1 03B            
1 44536U 19060C   26193.60511091  .00022096  00000+0  32400-3 0  9992
2 44536  97.5543 352.7740 0008228 215.1312 144.9401 15.55524241380277
ZHUHAI-1 03D            
1 44538U 19060E   26193.58714918  .00022481  00000+0  38484-3 0  9990
2 44538  97.5389 344.6534 0007330 200.7088 159.3868 15.51230876380014
ZHUHAI-1 03E            
1 44539U 19060F   26193.56044954  .00010712  00000+0  25445-3 0  9992
2 44539  97.5631 344.4067 0004373 288.6941  71.3831 15.41864958379677
GAOFEN-7                
1 44703U 19072A   26193.65292282  .00002152  00000+0  98530-4 0  9992
2 44703  97.5711 254.3728 0017572 313.5466  46.4309 15.21503351371510
JILIN-1 GAOFEN 2A       
1 44777U 19075A   26193.54702401  .00008521  00000+0  21589-3 0  9998
2 44777  97.4968 277.9402 0005430   5.0191 355.1108 15.39968282368781
NINGXIA-1 1             
1 44779U 19076A   26193.62057815 -.00000112  00000+0  11642-4 0  9991
2 44779  45.0063  66.1939 0011619 278.3585  81.5932 14.02041689341428
NINGXIA-1 5             
1 44783U 19076E   26193.63299466  .00000022  00000+0  98776-4 0  9999
2 44783  45.0061  65.4709 0011431 269.4057  90.5467 14.02089977341341
KL-ALPHA A              
1 44785U 19077A   26193.57706252  .00000161  00000+0  21231-3 0  9996
2 44785  88.9240 219.7878 0012631  43.6166 316.5985 13.56045797329178
CARTOSAT-3              
1 44804U 19081A   26193.64637750  .00002828  00000+0  13691-3 0  9990
2 44804  97.4298 255.1020 0013228  69.0252 291.2397 15.19313516367336
JILIN-1 GAOFEN 2B       
1 44836U 19086A   26193.54400241  .00003506  00000+0  16106-3 0  9990
2 44836  97.4877 265.3789 0012996 225.7243 134.2927 15.20981228364347
TIANQIN 1 (CAS-6)       
1 44879U 19093A   26193.58153081  .00002072  00000+0  19202-3 0  9993
2 44879  97.7804 277.2390 0010156 336.6499  23.4259 14.95551956355842
ETRSS-1                 
1 44880U 19093B   26193.58088267  .00002171  00000+0  19860-3 0  9998
2 44880  97.7821 277.7201 0010283 336.5735  23.5016 14.95998867355851
TIANYAN 01              
1 44881U 19093C   26193.62317938  .00000632  00000+0  77289-4 0  9994
2 44881  97.7526 265.2339 0013779   9.9275 350.2211 14.86558614355197
TIANYAN 02              
1 44882U 19093D   26193.57757454  .00002940  00000+0  20858-3 0  9993
2 44882  97.7944 288.6165 0012061 298.9286  61.0730 15.05515904356431
CBERS 4A                
1 44883U 19093E   26193.62124699  .00001154  00000+0  15421-3 0  9995
2 44883  98.0187 261.0821 0001327 132.7901 227.3423 14.81444078354846
WEILAI 1R               
1 44884U 19093F   26193.52432681  .00002319  00000+0  18682-3 0  9994
2 44884  97.7887 283.4556 0015896 317.4519  42.5472 15.00852746356228
